NORAD_CAT_ID,OBJECT_NAME,OBJECT_TYPE,EPOCH,MEAN_MOTION,ECCENTRICITY,INCLINATION,RA_OF_ASC_NODE,ARG_OF_PERICENTER,MEAN_ANOMALY,BSTAR,MEAN_MOTION_DOT,MEAN_MOTION_DDOT,TLE_LINE0,TLE_LINE1,TLE_LINE2,SEMIMAJOR_AXIS,PERIOD,APOGEE,PERIGEE,DECAYED
52313.0,STARLINK-3749,PAYLOAD,2023-11-05 18:20:26,15.08844303,0.0002215,53.2164,327.034,86.9507,273.1739,0.00017914,2.564e-05,0.0,0 STARLINK-3749,1 52313U 22041BE  23309.76420102  .00002564  00000-0  17914-3 0  9994,2 52313  53.2164 327.0340 0002215  86.9507 273.1739 15.08844303 86801,6917.867,95.437,541.265,538.2,0.0
52313.0,STARLINK-3749,PAYLOAD,2023-11-06 10:14:17,15.08874026,0.0001936,53.2162,324.0586,81.4258,278.6954,0.0011648,0.00018316,0.0,0 STARLINK-3749,1 52313U 22041BE  23310.42659121  .00018316  00000-0  11648-2 0  9993,2 52313  53.2162 324.0586 0001936  81.4258 278.6954 15.08874026 86905,6917.776,95.435,540.981,538.302,0.0
52313.0,STARLINK-3749,PAYLOAD,2023-11-07 06:54:20,15.08792758,0.000126,53.2153,320.194,144.942,215.1655,0.0012479,0.00019602,0.0,0 STARLINK-3749,1 52313U 22041BE  23311.28774180  .00019602  00000-0  12479-2 0  9993,2 52313  53.2153 320.1940 0001260 144.9420 215.1655 15.08792758 87032,6918.025,95.441,540.761,539.018,0.0
52313.0,STARLINK-3749,PAYLOAD,2023-11-07 13:15:54,15.08778717,0.0001155,53.2165,319.0023,65.7409,294.3703,0.00056098,8.637e-05,0.0,0 STARLINK-3749,1 52313U 22041BE  23311.55271676  .00008637  00000-0  56098-3 0  9997,2 52313  53.2165 319.0023 0001155  65.7409 294.3703 15.08778717 87070,6918.068,95.441,540.732,539.134,0.0
52313.0,STARLINK-3749,PAYLOAD,2023-11-08 09:55:54,15.08884191,0.0001146,53.2157,315.1392,70.5792,289.5324,0.0019206,0.00030448,0.0,0 STARLINK-3749,1 52313U 22041BE  23312.41382458  .00030448  00000-0  19206-2 0  9998,2 52313  53.2157 315.1392 0001146  70.5792 289.5324 15.08884191 87200,6917.745,95.435,540.403,538.818,0.0
52313.0,STARLINK-3749,PAYLOAD,2023-11-08 17:52:49,15.08874507,0.0001422,53.2165,313.6513,77.908,282.2071,0.00082245,0.00012838,0.0,0 STARLINK-3749,1 52313U 22041BE  23312.74502035  .00012838  00000-0  82245-3 0  9996,2 52313  53.2165 313.6513 0001422  77.9080 282.2071 15.08874507 87259,6917.775,95.435,540.624,538.656,0.0
52313.0,STARLINK-3749,PAYLOAD,2023-11-09 06:35:54,15.08879199,0.0001211,53.2159,311.2734,79.5449,280.568,0.001598,0.00025263,0.0,0 STARLINK-3749,1 52313U 22041BE  23313.27493133  .00025263  00000-0  15980-2 0  9990,2 52313  53.2159 311.2734 0001211  79.5449 280.5680 15.08879199 87332,6917.761,95.435,540.463,538.788,0.0
52313.0,STARLINK-3749,PAYLOAD,2023-11-10 03:15:54,15.08840024,0.0001304,53.2179,307.4107,67.9766,292.1364,0.00095022,0.00014867,0.0,0 STARLINK-3749,1 52313U 22041BE  23314.13605164  .00014867  00000-0  95022-3 0  9999,2 52313  53.2179 307.4107 0001304  67.9766 292.1364 15.08840024 87468,6917.88,95.438,540.647,538.843,0.0
52313.0,STARLINK-3749,PAYLOAD,2023-11-10 06:26:40,15.08843701,0.000164,53.2171,306.8112,103.8002,256.3173,0.0013229,0.00020831,0.0,0 STARLINK-3749,1 52313U 22041BE  23314.26852968  .00020831  00000-0  13229-2 0  9995,2 52313  53.2171 306.8112 0001640 103.8002 256.3173 15.08843701 87482,6917.869,95.437,540.869,538.6,0.0
52313.0,STARLINK-3749,PAYLOAD,2023-11-11 03:06:42,15.08846864,0.0001672,53.2159,302.9462,78.6158,281.5022,0.0010006,0.00015675,0.0,0 STARLINK-3749,1 52313U 22041BE  23315.12965466  .00015675  00000-0  10006-2 0  9999,2 52313  53.2159 302.9462 0001672  78.6158 281.5022 15.08846864 87610,6917.859,95.437,540.881,538.568,0.0
52313.0,STARLINK-3749,PAYLOAD,2023-11-11 04:42:05,15.08843276,0.0001597,53.216,302.6486,86.7018,273.4157,0.00091859,0.00014363,0.0,0 STARLINK-3749,1 52313U 22041BE  23315.19589463  .00014363  00000-0  91859-3 0  9994,2 52313  53.2160 302.6486 0001597  86.7018 273.4157 15.08843276 87620,6917.87,95.437,540.84,538.631,0.0
52313.0,STARLINK-3749,PAYLOAD,2023-11-11 15:49:47,15.08843065,0.0001622,53.2159,300.565,89.1162,271.0016,0.00037933,5.755e-05,0.0,0 STARLINK-3749,1 52313U 22041BE  23315.65957389  .00005755  00000-0  37933-3 0  9999,2 52313  53.2159 300.5650 0001622  89.1162 271.0016 15.08843065 87695,6917.871,95.437,540.858,538.614,0.0
52313.0,STARLINK-3749,PAYLOAD,2023-11-12 09:19:01,15.08863942,0.0001716,53.2159,297.2954,93.5041,266.6147,0.00075116,0.00011695,0.0,0 STARLINK-3749,1 52313U 22041BE  23316.38820696  .00011695  00000-0  75116-3 0  9995,2 52313  53.2159 297.2954 0001716  93.5041 266.6147 15.08863942 87807,6917.807,95.436,540.859,538.485,0.0
52313.0,STARLINK-3749,PAYLOAD,2023-11-12 18:51:20,15.08842644,0.0001742,53.2161,295.5119,90.8728,269.2463,8.0398e-05,9.92e-06,0.0,0 STARLINK-3749,1 52313U 22041BE  23316.78565132  .00000992  00000-0  80398-4 0  9997,2 52313  53.2161 295.5119 0001742  90.8728 269.2463 15.08842644 87867,6917.872,95.437,540.942,538.532,0.0
52313.0,STARLINK-3749,PAYLOAD,2023-11-12 22:02:06,15.08840355,0.0001723,53.216,294.9173,91.0281,269.0908,6.8764e-06,-1.79e-06,0.0,0 STARLINK-3749,1 52313U 22041BE  23316.91813150 -.00000179  00000-0  68764-5 0  9990,2 52313  53.2160 294.9173 0001723  91.0281 269.0908 15.08840355 87886,6917.879,95.438,540.936,538.552,0.0
52313.0,STARLINK-3749,PAYLOAD,2023-11-13 07:34:25,15.08842126,0.0001657,53.2166,293.1325,88.9085,271.2097,9.4676e-05,1.219e-05,0.0,0 STARLINK-3749,1 52313U 22041BE  23317.31557300  .00001219  00000-0  94676-4 0  9992,2 52313  53.2166 293.1325 0001657  88.9085 271.2097 15.08842126 87944,6917.874,95.437,540.885,538.593,0.0
52313.0,STARLINK-3749,PAYLOAD,2023-11-14 04:14:26,15.08841916,0.0001682,53.2167,289.2663,94.6365,265.4819,7.3084e-05,8.75e-06,0.0,0 STARLINK-3749,1 52313U 22041BE  23318.17669275  .00000875  00000-0  73084-4 0  9999,2 52313  53.2167 289.2663 0001682  94.6365 265.4819 15.08841916 88077,6917.875,95.437,540.903,538.576,0.0
52313.0,STARLINK-3749,PAYLOAD,2023-11-14 07:25:12,15.08844952,0.000163,53.2173,288.6696,90.5202,269.5977,0.00014856,2.077e-05,0.0,0 STARLINK-3749,1 52313U 22041BE  23318.30917131  .00002077  00000-0  14856-3 0  9998,2 52313  53.2173 288.6696 0001630  90.5202 269.5977 15.08844952 88096,6917.865,95.437,540.858,538.603,0.0
52313.0,STARLINK-3749,PAYLOAD,2023-11-14 21:43:41,15.08834715,0.0001519,53.2172,285.9928,111.237,248.8784,8.0512e-05,9.93e-06,0.0,0 STARLINK-3749,1 52313U 22041BE  23318.90533624  .00000993  00000-0  80512-4 0  9993,2 52313  53.2172 285.9928 0001519 111.2370 248.8784 15.08834715 88188,6917.897,95.438,540.812,538.711,0.0
52313.0,STARLINK-3749,PAYLOAD,2023-11-15 04:05:13,15.08837274,0.0001778,53.2172,284.8063,92.0367,268.0829,0.00014156,1.965e-05,0.0,0 STARLINK-3749,1 52313U 22041BE  23319.17029859  .00001965  00000-0  14156-3 0  9993,2 52313  53.2172 284.8063 0001778  92.0367 268.0829 15.08837274 88227,6917.889,95.438,540.984,538.524,0.0
52313.0,STARLINK-3749,PAYLOAD,2023-11-15 07:15:59,15.08842226,0.0001814,53.2177,284.2089,105.122,254.9973,0.00013346,1.837e-05,0.0,0 STARLINK-3749,1 52313U 22041BE  23319.30277517  .00001837  00000-0  13346-3 0  9992,2 52313  53.2177 284.2089 0001814 105.1220 254.9973 15.08842226 88248,6917.874,95.437,540.993,538.484,0.0
52313.0,STARLINK-3749,PAYLOAD,2023-11-15 15:12:55,15.08839711,0.0001688,53.2167,282.7227,92.013,268.1056,0.00010657,1.408e-05,0.0,0 STARLINK-3749,1 52313U 22041BE  23319.63397790  .00001408  00000-0  10657-3 0  9990,2 52313  53.2167 282.7227 0001688  92.0130 268.1056 15.08839711 88296,6917.881,95.438,540.914,538.579,0.0
52313.0,STARLINK-3749,PAYLOAD,2023-11-16 03:56:00,15.08846514,0.0001655,53.2166,280.3442,88.6828,271.4354,0.00012655,1.727e-05,0.0,0 STARLINK-3749,1 52313U 22041BE  23320.16389505  .00001727  00000-0  12655-3 0  9999,2 52313  53.2166 280.3442 0001655  88.6828 271.4354 15.08846514 88373,6917.86,95.437,540.87,538.581,0.0
52313.0,STARLINK-3749,PAYLOAD,2023-11-17 03:46:48,15.08822987,0.000178,53.2166,275.8823,90.8845,269.2351,0.00072995,0.00011343,0.0,0 STARLINK-3749,1 52313U 22041BE  23321.15750789  .00011343  00000-0  72995-3 0  9993,2 52313  53.2166 275.8823 0001780  90.8845 269.2351 15.08822987 88525,6917.932,95.439,541.029,538.566,0.0
52313.0,STARLINK-3749,PAYLOAD,2023-11-18 06:48:21,15.08836966,0.000176,53.2182,270.8279,100.2243,259.8947,1.6066e-05,-3.2e-07,0.0,0 STARLINK-3749,1 52313U 22041BE  23322.28358125 -.00000032  00000-0  16066-4 0  9998,2 52313  53.2182 270.8279 0001760 100.2243 259.8947 15.08836966 88695,6917.89,95.438,540.972,538.537,0.0
52313.0,STARLINK-3749,PAYLOAD,2023-11-18 13:09:53,15.08837901,0.0001729,53.2182,269.639,96.4704,263.6485,1.8188e-05,1e-08,0.0,0 STARLINK-3749,1 52313U 22041BE  23322.54854090  .00000001  00000-0  18188-4 0  9991,2 52313  53.2182 269.6390 0001729  96.4704 263.6485 15.08837901 88733,6917.887,95.438,540.948,538.556,0.0
52313.0,STARLINK-3749,PAYLOAD,2023-11-19 13:00:40,15.08840527,0.0001638,53.218,265.1786,82.5237,277.5941,0.0001213,1.643e-05,0.0,0 STARLINK-3749,1 52313U 22041BE  23323.54213721  .00001643  00000-0  12130-3 0  9995,2 52313  53.2180 265.1786 0001638  82.5237 277.5941 15.08840527 88882,6917.879,95.438,540.877,538.611,0.0
52313.0,STARLINK-3749,PAYLOAD,2023-11-20 03:19:09,15.08835923,0.000169,53.2185,262.5027,86.0113,274.1072,6.1338e-05,6.88e-06,0.0,0 STARLINK-3749,1 52313U 22041BE  23324.13830236  .00000688  00000-0  61338-4 0  9990,2 52313  53.2185 262.5027 0001690  86.0113 274.1072 15.08835923 88978,6917.893,95.438,540.927,538.589,0.0
52313.0,STARLINK-3749,PAYLOAD,2023-11-20 12:51:28,15.08836031,0.0001704,53.2188,260.7199,93.2148,266.9039,8.2432e-05,1.024e-05,0.0,0 STARLINK-3749,1 52313U 22041BE  23324.53574286  .00001024  00000-0  82432-4 0  9997,2 52313  53.2188 260.7199 0001704  93.2148 266.9039 15.08836031 89036,6917.893,95.438,540.936,538.579,0.0
52313.0,STARLINK-3749,PAYLOAD,2023-11-21 03:09:55,15.08848209,0.0001681,53.2182,258.0424,91.6875,268.431,5.5418e-05,5.94e-06,0.0,0 STARLINK-3749,1 52313U 22041BE  23325.13189496  .00000594  00000-0  55418-4 0  9994,2 52313  53.2182 258.0424 0001681  91.6875 268.4310 15.08848209 89123,6917.855,95.437,540.883,538.557,0.0
